start=new Date('2021-10-27T00:00:00.000Z').valueOf();
sats=[{"TLE_LINE1":"1 45558U 20025AD  21298.77616230  .00001438  00000-0  11541-3 0  9991","SEMIMAJOR_AXIS":"6925.336","BSTAR":"0.00011541000000","COUNTRY_CODE":"US","DECAY_DATE":null,"OBJECT_TYPE":"PAYLOAD","CENTER_NAME":"EARTH","APOAPSIS":"548.480","ELEMENT_SET_NO":"999","INCLINATION":"53.0556","FILE":"3184921","MEAN_MOTION_DDOT":"0.0000000000000","REV_AT_EPOCH":"8482","OBJECT_NAME":"STARLINK-1342","MEAN_ELEMENT_THEORY":"SGP4","SITE":"AFETR","CLASSIFICATION_TYPE":"U","ECCENTRICITY":"0.00018460","EPOCH":"2021-10-25T18:37:40.422720","TLE_LINE2":"2 45558  53.0556  50.9595 0001846 113.9990 246.1193 15.06403955 84823","MEAN_ANOMALY":"246.1193","RA_OF_ASC_NODE":"50.9595","PERIAPSIS":"545.923","EPHEMERIS_TYPE":"0","ARG_OF_PERICENTER":"113.9990","OBJECT_ID":"2020-025AD","NORAD_CAT_ID":"45558","GP_ID":"188197497","LAUNCH_DATE":"2020-04-22","RCS_SIZE":"LARGE","TIME_SYSTEM":"UTC","MEAN_MOTION_DOT":"0.00001438","MEAN_MOTION":"15.06403955","PERIOD":"95.592","REF_FRAME":"TEME"},{"COUNTRY_CODE":"US","DECAY_DATE":null,"CENTER_NAME":"EARTH","OBJECT_TYPE":"PAYLOAD","TLE_LINE1":"1 45559U 20025AE  21299.47649404  .00000180  00000-0  30982-4 0  9993","BSTAR":"0.00003098200000","SEMIMAJOR_AXIS":"6925.333","FILE":"3184921","MEAN_MOTION_DDOT":"0.0000000000000","REV_AT_EPOCH":"8493","INCLINATION":"53.0553","ELEMENT_SET_NO":"999","APOAPSIS":"547.871","TLE_LINE2":"2 45559  53.0553  47.8103 0000971 100.7293 259.3806 15.06405013 84935","OBJECT_NAME":"STARLINK-1344","CLASSIFICATION_TYPE":"U","EPOCH":"2021-10-26T11:26:09.085056","ECCENTRICITY":"0.00009710","SITE":"AFETR","MEAN_ELEMENT_THEORY":"SGP4","MEAN_ANOMALY":"259.3806","RA_OF_ASC_NODE":"47.8103","EPHEMERIS_TYPE":"0","PERIAPSIS":"546.526","GP_ID":"188197749","NORAD_CAT_ID":"45559","ARG_OF_PERICENTER":"100.7293","OBJECT_ID":"2020-025AE","TIME_SYSTEM":"UTC","RCS_SIZE":"LARGE","LAUNCH_DATE":"2020-04-22","REF_FRAME":"TEME","PERIOD":"95.592","MEAN_MOTION_DOT":"0.00000180","MEAN_MOTION":"15.06405013"},{"MEAN_ANOMALY":"277.7867","RA_OF_ASC_NODE":"37.8772","TLE_LINE2":"2 45560  53.0560  37.8772 0001562  82.3299 277.7867 15.06400344 85073","OBJECT_NAME":"STARLINK-1346","EPOCH":"2021-10-26T11:06:15.147648","CLASSIFICATION_TYPE":"U","ECCENTRICITY":"0.00015620","SITE":"AFETR","MEAN_ELEMENT_THEORY":"SGP4","FILE":"3184921","INCLINATION":"53.0560","MEAN_MOTION_DDOT":"0.0000000000000","REV_AT_EPOCH":"8507","ELEMENT_SET_NO":"999","APOAPSIS":"548.294","DECAY_DATE":null,"COUNTRY_CODE":"US","CENTER_NAME":"EARTH","OBJECT_TYPE":"PAYLOAD","TLE_LINE1":"1 45560U 20025AF  21299.46267532  .00000006  00000-0  19322-4 0  9994","BSTAR":"0.00001932200000","SEMIMAJOR_AXIS":"6925.348","REF_FRAME":"TEME","PERIOD":"95.592","MEAN_MOTION_DOT":"0.00000006","MEAN_MOTION":"15.06400344","TIME_SYSTEM":"UTC","RCS_SIZE":"LARGE","LAUNCH_DATE":"2020-04-22","GP_ID":"188198495","ARG_OF_PERICENTER":"82.3299","NORAD_CAT_ID":"45560","OBJECT_ID":"2020-025AF","EPHEMERIS_TYPE":"0","PERIAPSIS":"546.131"},{"EPHEMERIS_TYPE":"0","PERIAPSIS":"543.873","GP_ID":"188201664","OBJECT_ID":"2020-025AG","ARG_OF_PERICENTER":"53.0516","NORAD_CAT_ID":"45561","RCS_SIZE":"LARGE","TIME_SYSTEM":"UTC","LAUNCH_DATE":"2020-04-22","PERIOD":"95.532","REF_FRAME":"TEME","MEAN_MOTION":"15.07354934","MEAN_MOTION_DOT":"0.00005855","CENTER_NAME":"EARTH","OBJECT_TYPE":"PAYLOAD","DECAY_DATE":null,"COUNTRY_CODE":"US","SEMIMAJOR_AXIS":"6922.423","BSTAR":"0.00040129000000","TLE_LINE1":"1 45561U 20025AG  21299.42633811  .00005855  00000-0  40129-3 0  9993","FILE":"3184985","MEAN_MOTION_DDOT":"0.0000000000000","REV_AT_EPOCH":"8553","INCLINATION":"53.0594","ELEMENT_SET_NO":"999","APOAPSIS":"544.704","TLE_LINE2":"2 45561  53.0594 322.7334 0000600  53.0516 307.0529 15.07354934 85537","CLASSIFICATION_TYPE":"U","EPOCH":"2021-10-26T10:13:55.612704","ECCENTRICITY":"0.00006000","SITE":"AFETR","MEAN_ELEMENT_THEORY":"SGP4","OBJECT_NAME":"STARLINK-1348","RA_OF_ASC_NODE":"322.7334","MEAN_ANOMALY":"307.0529"},{"MEAN_ANOMALY":"266.7746","RA_OF_ASC_NODE":"48.3759","OBJECT_NAME":"STARLINK-1354","CLASSIFICATION_TYPE":"U","EPOCH":"2021-10-26T08:25:41.437920","ECCENTRICITY":"0.00011340","SITE":"AFETR","MEAN_ELEMENT_THEORY":"SGP4","TLE_LINE2":"2 45562  53.0553  48.3759 0001134  93.3373 266.7746 15.06400876 84915","ELEMENT_SET_NO":"999","APOAPSIS":"547.996","FILE":"3184921","MEAN_MOTION_DDOT":"0.0000000000000","INCLINATION":"53.0553","REV_AT_EPOCH":"8491","TLE_LINE1":"1 45562U 20025AH  21299.35117405  .00000626  00000-0  60923-4 0  9998","BSTAR":"0.00006092300000","SEMIMAJOR_AXIS":"6925.346","COUNTRY_CODE":"US","DECAY_DATE":null,"CENTER_NAME":"EARTH","OBJECT_TYPE":"PAYLOAD","MEAN_MOTION_DOT":"0.00000626","MEAN_MOTION":"15.06400876","PERIOD":"95.592","REF_FRAME":"TEME","RCS_SIZE":"LARGE","TIME_SYSTEM":"UTC","LAUNCH_DATE":"2020-04-22","NORAD_CAT_ID":"45562","OBJECT_ID":"2020-025AH","ARG_OF_PERICENTER":"93.3373","GP_ID":"188196998","EPHEMERIS_TYPE":"0","PERIAPSIS":"546.426"},{"GP_ID":"188198249","ARG_OF_PERICENTER":"89.6084","OBJECT_ID":"2020-025AJ","NORAD_CAT_ID":"45563","EPHEMERIS_TYPE":"0","PERIAPSIS":"546.274","PERIOD":"95.592","REF_FRAME":"TEME","MEAN_MOTION":"15.06399251","MEAN_MOTION_DOT":"-0.00000178","RCS_SIZE":"LARGE","TIME_SYSTEM":"UTC","LAUNCH_DATE":"2020-04-22","MEAN_MOTION_DDOT":"0.0000000000000","FILE":"3184921","REV_AT_EPOCH":"8492","INCLINATION":"53.0554","ELEMENT_SET_NO":"999","APOAPSIS":"548.158","CENTER_NAME":"EARTH","OBJECT_TYPE":"PAYLOAD","COUNTRY_CODE":"US","DECAY_DATE":null,"BSTAR":"0.00000693380000","SEMIMAJOR_AXIS":"6925.351","TLE_LINE1":"1 45563U 20025AJ  21299.43226207 -.00000178  00000-0  69338-5 0  9992","RA_OF_ASC_NODE":"48.0160","MEAN_ANOMALY":"270.5060","TLE_LINE2":"2 45563  53.0554  48.0160 0001360  89.6084 270.5060 15.06399251 84925","ECCENTRICITY":"0.00013600","CLASSIFICATION_TYPE":"U","EPOCH":"2021-10-26T10:22:27.442848","MEAN_ELEMENT_THEORY":"SGP4","SITE":"AFETR","OBJECT_NAME":"STARLINK-1355"},{"PERIOD":"95.592","REF_FRAME":"TEME","MEAN_MOTION":"15.06399876","MEAN_MOTION_DOT":"0.00000806","LAUNCH_DATE":"2020-04-22","TIME_SYSTEM":"UTC","RCS_SIZE":"LARGE","GP_ID":"188203157","ARG_OF_PERICENTER":"93.5416","NORAD_CAT_ID":"45564","OBJECT_ID":"2020-025AK","PERIAPSIS":"546.350","EPHEMERIS_TYPE":"0","RA_OF_ASC_NODE":"48.0242","MEAN_ANOMALY":"266.5716","TLE_LINE2":"2 45564  53.0545  48.0242 0001247  93.5416 266.5716 15.06399876 84324","SITE":"AFETR","MEAN_ELEMENT_THEORY":"SGP4","EPOCH":"2021-10-26T10:17:08.977632","CLASSIFICATION_TYPE":"U","ECCENTRICITY":"0.00012470","OBJECT_NAME":"STARLINK-1356","FILE":"3185039","REV_AT_EPOCH":"8432","MEAN_MOTION_DDOT":"0.0000000000000","INCLINATION":"53.0545","APOAPSIS":"548.078","ELEMENT_SET_NO":"999","OBJECT_TYPE":"PAYLOAD","CENTER_NAME":"EARTH","COUNTRY_CODE":"US","DECAY_DATE":null,"SEMIMAJOR_AXIS":"6925.349","BSTAR":"0.00007296600000","TLE_LINE1":"1 45564U 20025AK  21299.42857613  .00000806  00000-0  72966-4 0  9990"},{"REF_FRAME":"TEME","PERIOD":"95.592","MEAN_MOTION":"15.06400338","MEAN_MOTION_DOT":"0.00001514","LAUNCH_DATE":"2020-04-22","TIME_SYSTEM":"UTC","RCS_SIZE":"LARGE","GP_ID":"188196748","OBJECT_ID":"2020-025AL","NORAD_CAT_ID":"45565","ARG_OF_PERICENTER":"103.8431","PERIAPSIS":"546.304","EPHEMERIS_TYPE":"0","RA_OF_ASC_NODE":"48.3598","MEAN_ANOMALY":"256.2704","TLE_LINE2":"2 45565  53.0555  48.3598 0001312 103.8431 256.2704 15.06400338 84912","SITE":"AFETR","MEAN_ELEMENT_THEORY":"SGP4","EPOCH":"2021-10-26T08:30:59.514336","CLASSIFICATION_TYPE":"U","ECCENTRICITY":"0.00013120","OBJECT_NAME":"STARLINK-1357","INCLINATION":"53.0555","FILE":"3184921","MEAN_MOTION_DDOT":"0.0000000000000","REV_AT_EPOCH":"8491","APOAPSIS":"548.121","ELEMENT_SET_NO":"999","OBJECT_TYPE":"PAYLOAD","CENTER_NAME":"EARTH","DECAY_DATE":null,"COUNTRY_CODE":"US","SEMIMAJOR_AXIS":"6925.348","BSTAR":"0.00012052000000","TLE_LINE1":"1 45565U 20025AL  21299.35485549  .00001514  00000-0  12052-3 0  9994"},{"PERIAPSIS":"546.512","EPHEMERIS_TYPE":"0","ARG_OF_PERICENTER":"97.4288","OBJECT_ID":"2020-025AM","NORAD_CAT_ID":"45566","GP_ID":"188203155","LAUNCH_DATE":"2020-04-22","RCS_SIZE":"LARGE","TIME_SYSTEM":"UTC","MEAN_MOTION":"15.06409619","MEAN_MOTION_DOT":"0.00002718","PERIOD":"95.592","REF_FRAME":"TEME","BSTAR":"0.00020123000000","SEMIMAJOR_AXIS":"6925.319","TLE_LINE1":"1 45566U 20025AM  21299.56864429  .00002718  00000-0  20123-3 0  9991","OBJECT_TYPE":"PAYLOAD","CENTER_NAME":"EARTH","DECAY_DATE":null,"COUNTRY_CODE":"US","APOAPSIS":"547.856","ELEMENT_SET_NO":"999","FILE":"3185039","MEAN_MOTION_DDOT":"0.0000000000000","INCLINATION":"53.0556","REV_AT_EPOCH":"8434","MEAN_ELEMENT_THEORY":"SGP4","SITE":"AFETR","ECCENTRICITY":"0.00009700","CLASSIFICATION_TYPE":"U","EPOCH":"2021-10-26T13:38:50.866656","OBJECT_NAME":"STARLINK-1358","TLE_LINE2":"2 45566  53.0556  47.4052 0000970  97.4288 262.6811 15.06409619 84344","RA_OF_ASC_NODE":"47.4052","MEAN_ANOMALY":"262.6811"},{"TIME_SYSTEM":"UTC","RCS_SIZE":"LARGE","LAUNCH_DATE":"2020-04-22","MEAN_MOTION":"15.06401739","MEAN_MOTION_DOT":"0.00000412","REF_FRAME":"TEME","PERIOD":"95.592","EPHEMERIS_TYPE":"0","PERIAPSIS":"546.243","NORAD_CAT_ID":"45567","ARG_OF_PERICENTER":"93.0808","OBJECT_ID":"2020-025AN","GP_ID":"188201661","EPOCH":"2021-10-26T10:43:41.451456","CLASSIFICATION_TYPE":"U","ECCENTRICITY":"0.00013940","MEAN_ELEMENT_THEORY":"SGP4","SITE":"AFETR","OBJECT_NAME":"STARLINK-1361","TLE_LINE2":"2 45567  53.0551  47.9439 0001394  93.0808 267.0340 15.06401739 84324","RA_OF_ASC_NODE":"47.9439","MEAN_ANOMALY":"267.0340","BSTAR":"0.00004656200000","SEMIMAJOR_AXIS":"6925.343","TLE_LINE1":"1 45567U 20025AN  21299.44700754  .00000412  00000-0  46562-4 0  9994","CENTER_NAME":"EARTH","OBJECT_TYPE":"PAYLOAD","COUNTRY_CODE":"US","DECAY_DATE":null,"ELEMENT_SET_NO":"999","APOAPSIS":"548.174","MEAN_MOTION_DDOT":"0.0000000000000","FILE":"3184985","REV_AT_EPOCH":"8432","INCLINATION":"53.0551"}];
